[
    {
        "Altitude(m)": 708988.2073619211,
        "Argument of Periapsis(deg)": 0.0,
        "Eccentricity": 0.0,
        "Inclination(deg)": 45.0,
        "Latitude(deg)": -22.638806751420553,
        "Longitude(deg)": -154.47694495628292,
        "Mean Anomaly(deg)": -32.72730000000001,
        "RAAN(deg)": 330.0,
        "Satellite Name": "Constellation 1 1472",
        "Satellite Number": 1472,
        "Semi-Major Axis(m)": 7083131.272910544,
        "Time(s)": 0
    },
    {
        "Altitude(m)": 708974.6498827352,
        "Argument of Periapsis(deg)": 5.994800624540561e-05,
        "Eccentricity": 0.0,
        "Inclination(deg)": 45.0,
        "Latitude(deg)": -22.59958115138511,
        "Longitude(deg)": -154.4308676195567,
        "Mean Anomaly(deg)": -32.666598859750074,
        "RAAN(deg)": 329.9999434108344,
        "Satellite Name": "Constellation 1 1472",
        "Satellite Number": 1472,
        "Semi-Major Axis(m)": 7083131.272910544,
        "Time(s)": 1
    },
    {
        "Altitude(m)": 708961.097679737,
        "Argument of Periapsis(deg)": 0.00011989601249081122,
        "Eccentricity": 0.0,
        "Inclination(deg)": 45.0,
        "Latitude(deg)": -22.560339595542214,
        "Longitude(deg)": -154.38481858399476,
        "Mean Anomaly(deg)": -32.60589771950029,
        "RAAN(deg)": 329.9998868216689,
        "Satellite Name": "Constellation 1 1472",
        "Satellite Number": 1472,
        "Semi-Major Axis(m)": 7083131.272910544,
        "Time(s)": 2
    },
    {
        "Altitude(m)": 708947.5507980519,
        "Argument of Periapsis(deg)": 0.00017984401873621686,
        "Eccentricity": 0.0,
        "Inclination(deg)": 45.0,
        "Latitude(deg)": -22.521082122870535,
        "Longitude(deg)": -154.3387977902479,
        "Mean Anomaly(deg)": -32.5451965792503,
        "RAAN(deg)": 329.99983023250326,
        "Satellite Name": "Constellation 1 1472",
        "Satellite Number": 1472,
        "Semi-Major Axis(m)": 7083131.272910544,
        "Time(s)": 3
    },
    {
        "Altitude(m)": 708934.0092827714,
        "Argument of Periapsis(deg)": 0.00023979202498162244,
        "Eccentricity": 0.0,
        "Inclination(deg)": 45.0,
        "Latitude(deg)": -22.48180877229413,
        "Longitude(deg)": -154.29280517898675,
        "Mean Anomaly(deg)": -32.48449543900036,
        "RAAN(deg)": 329.9997736433377,
        "Satellite Name": "Constellation 1 1472",
        "Satellite Number": 1472,
        "Semi-Major Axis(m)": 7083131.272910544,
        "Time(s)": 4
    },
    {
        "Altitude(m)": 708920.4731789508,
        "Argument of Periapsis(deg)": 0.00029974003122702807,
        "Eccentricity": 0.0,
        "Inclination(deg)": 45.0,
        "Latitude(deg)": -22.442519582681918,
        "Longitude(deg)": -154.24684069090162,
        "Mean Anomaly(deg)": -32.42379429875053,
        "RAAN(deg)": 329.99971705417215,
        "Satellite Name": "Constellation 1 1472",
        "Satellite Number": 1472,
        "Semi-Major Axis(m)": 7083131.272910544,
        "Time(s)": 5
    },
    {
        "Altitude(m)": 708906.9425316061,
        "Argument of Periapsis(deg)": 0.00035968803747243373,
        "Eccentricity": 0.0,
        "Inclination(deg)": 45.0,
        "Latitude(deg)": -22.403214592847856,
        "Longitude(deg)": -154.2009042667022,
        "Mean Anomaly(deg)": -32.36309315850064,
        "RAAN(deg)": 329.99966046500657,
        "Satellite Name": "Constellation 1 1472",
        "Satellite Number": 1472,
        "Semi-Major Axis(m)": 7083131.272910544,
        "Time(s)": 6
    },
    {
        "Altitude(m)": 708893.4173857318,
        "Argument of Periapsis(deg)": 0.00041963604371783933,
        "Eccentricity": 0.0,
        "Inclination(deg)": 45.0,
        "Latitude(deg)": -22.3638938415508,
        "Longitude(deg)": -154.15499601521526,
        "Mean Anomaly(deg)": -32.3023920182507,
        "RAAN(deg)": 329.99960387584105,
        "Satellite Name": "Constellation 1 1472",
        "Satellite Number": 1472,
        "Semi-Major Axis(m)": 7083131.272910544,
        "Time(s)": 7
    },
    {
        "Altitude(m)": 708879.8977862751,
        "Argument of Periapsis(deg)": 0.0004795840499632449,
        "Eccentricity": 0.0,
        "Inclination(deg)": 45.0,
        "Latitude(deg)": -22.32455736749599,
        "Longitude(deg)": -154.1091155409968,
        "Mean Anomaly(deg)": -32.24169087800082,
        "RAAN(deg)": 329.9995472866754,
        "Satellite Name": "Constellation 1 1472",
        "Satellite Number": 1472,
        "Semi-Major Axis(m)": 7083131.272910544,
        "Time(s)": 8
    },
    {
        "Altitude(m)": 708866.383778158,
        "Argument of Periapsis(deg)": 0.0005395320562086505,
        "Eccentricity": 0.0,
        "Inclination(deg)": 45.0,
        "Latitude(deg)": -22.28520520933319,
        "Longitude(deg)": -154.063262952914,
        "Mean Anomaly(deg)": -32.180989737750984,
        "RAAN(deg)": 329.9994906975098,
        "Satellite Name": "Constellation 1 1472",
        "Satellite Number": 1472,
        "Semi-Major Axis(m)": 7083131.272910544,
        "Time(s)": 9
    },
    {
        "Altitude(m)": 708852.8754062601,
        "Argument of Periapsis(deg)": 0.0005994800624540561,
        "Eccentricity": 0.0,
        "Inclination(deg)": 45.0,
        "Latitude(deg)": -22.245837405657866,
        "Longitude(deg)": -154.0174381917571,
        "Mean Anomaly(deg)": -32.120288597500995,
        "RAAN(deg)": 329.9994341083443,
        "Satellite Name": "Constellation 1 1472",
        "Satellite Number": 1472,
        "Semi-Major Axis(m)": 7083131.272910544,
        "Time(s)": 10
    },
    {
        "Altitude(m)": 708839.3727154331,
        "Argument of Periapsis(deg)": 0.0006594280686994618,
        "Eccentricity": 0.0,
        "Inclination(deg)": 45.0,
        "Latitude(deg)": -22.20645399501135,
        "Longitude(deg)": -153.97164119833747,
        "Mean Anomaly(deg)": -32.059587457251055,
        "RAAN(deg)": 329.9993775191787,
        "Satellite Name": "Constellation 1 1472",
        "Satellite Number": 1472,
        "Semi-Major Axis(m)": 7083131.272910544,
        "Time(s)": 11
    },
    {
        "Altitude(m)": 708825.8757504863,
        "Argument of Periapsis(deg)": 0.0007193760749448675,
        "Eccentricity": 0.0,
        "Inclination(deg)": 45.0,
        "Latitude(deg)": -22.1670550158808,
        "Longitude(deg)": -153.92587191348704,
        "Mean Anomaly(deg)": -31.99888631700122,
        "RAAN(deg)": 329.99932093001314,
        "Satellite Name": "Constellation 1 1472",
        "Satellite Number": 1472,
        "Semi-Major Axis(m)": 7083131.272910544,
        "Time(s)": 12
    },
    {
        "Altitude(m)": 708812.3845561955,
        "Argument of Periapsis(deg)": 0.000779324081190273,
        "Eccentricity": 0.0,
        "Inclination(deg)": 45.0,
        "Latitude(deg)": -22.127640506699084,
        "Longitude(deg)": -153.8801302780585,
        "Mean Anomaly(deg)": -31.938185176751333,
        "RAAN(deg)": 329.9992643408476,
        "Satellite Name": "Constellation 1 1472",
        "Satellite Number": 1472,
        "Semi-Major Axis(m)": 7083131.272910544,
        "Time(s)": 13
    },
    {
        "Altitude(m)": 708798.8991773041,
        "Argument of Periapsis(deg)": 0.0008392720874356787,
        "Eccentricity": 0.0,
        "Inclination(deg)": 45.0,
        "Latitude(deg)": -22.088210505845154,
        "Longitude(deg)": -153.83441623292543,
        "Mean Anomaly(deg)": -31.877484036501446,
        "RAAN(deg)": 329.999207751682,
        "Satellite Name": "Constellation 1 1472",
        "Satellite Number": 1472,
        "Semi-Major Axis(m)": 7083131.272910544,
        "Time(s)": 14
    },
    {
        "Altitude(m)": 708785.4196585201,
        "Argument of Periapsis(deg)": 0.0008992200936810842,
        "Eccentricity": 0.0,
        "Inclination(deg)": 45.0,
        "Latitude(deg)": -22.048765051643816,
        "Longitude(deg)": -153.78872988708005,
        "Mean Anomaly(deg)": -31.816782896251507,
        "RAAN(deg)": 329.99915116251645,
        "Satellite Name": "Constellation 1 1472",
        "Satellite Number": 1472,
        "Semi-Major Axis(m)": 7083131.272910544,
        "Time(s)": 15
    },
    {
        "Altitude(m)": 708771.9460445101,
        "Argument of Periapsis(deg)": 0.0009591680999264898,
        "Eccentricity": 0.0,
        "Inclination(deg)": 45.0,
        "Latitude(deg)": -22.009304182367092,
        "Longitude(deg)": -153.74307084524446,
        "Mean Anomaly(deg)": -31.756081756001674,
        "RAAN(deg)": 329.9990945733509,
        "Satellite Name": "Constellation 1 1472",
        "Satellite Number": 1472,
        "Semi-Major Axis(m)": 7083131.272910544,
        "Time(s)": 16
    },
    {
        "Altitude(m)": 708758.478379906,
        "Argument of Periapsis(deg)": 0.0010191161061718953,
        "Eccentricity": 0.0,
        "Inclination(deg)": 45.0,
        "Latitude(deg)": -21.969827936232274,
        "Longitude(deg)": -153.69743921645355,
        "Mean Anomaly(deg)": -31.695380615751688,
        "RAAN(deg)": 329.9990379841853,
        "Satellite Name": "Constellation 1 1472",
        "Satellite Number": 1472,
        "Semi-Major Axis(m)": 7083131.272910544,
        "Time(s)": 17
    },
    {
        "Altitude(m)": 708745.016709303,
        "Argument of Periapsis(deg)": 0.001079064112417301,
        "Eccentricity": 0.0,
        "Inclination(deg)": 45.0,
        "Latitude(deg)": -21.93033635140365,
        "Longitude(deg)": -153.6518349416669,
        "Mean Anomaly(deg)": -31.63467947550185,
        "RAAN(deg)": 329.99898139501977,
        "Satellite Name": "Constellation 1 1472",
        "Satellite Number": 1472,
        "Semi-Major Axis(m)": 7083131.272910544,
        "Time(s)": 18
    }
]